[{"spaceTrack":{"CCSDS_OMM_VERS":"2.0","COMMENT":"GENERATED VIA SPACE-TRACK.ORG API","CREATION_DATE":"2021-07-02T17:51:43","ORIGINATOR":"18 SPCS","OBJECT_NAME":"STARLINK-1421","OBJECT_ID":"2020-035BE","CENTER_NAME":"EARTH","REF_FRAME":"TEME","TIME_SYSTEM":"UTC","MEAN_ELEMENT_THEORY":"SGP4","EPOCH":"2021-07-02T10:02:17.493792","MEAN_MOTION":15.06397789,"ECCENTRICITY":0.0001125,"INCLINATION":53.0567,"RA_OF_ASC_NODE":158.8195,"ARG_OF_PERICENTER":54.9146,"MEAN_ANOMALY":305.1948,"EPHEMERIS_TYPE":0,"CLASSIFICATION_TYPE":"U","NORAD_CAT_ID":45709,"ELEMENT_SET_NO":999,"REV_AT_EPOCH":6118,"BSTAR":0.000049083,"MEAN_MOTION_DOT":0.0000045,"MEAN_MOTION_DDOT":0,"SEMIMAJOR_AXIS":6925.355,"PERIOD":95.592,"APOAPSIS":547.999,"PERIAPSIS":546.441,"OBJECT_TYPE":"PAYLOAD","RCS_SIZE":"LARGE","COUNTRY_CODE":"US","LAUNCH_DATE":"2020-06-04","SITE":"AFETR","DECAY_DATE":null,"DECAYED":0,"FILE":3068555,"GP_ID":180166169,"TLE_LINE0":"0 STARLINK-1421","TLE_LINE1":"1 45709U 20035BE  21183.41825803  .00000450  00000-0  49083-4 0  9998","TLE_LINE2":"2 45709  53.0567 158.8195 0001125  54.9146 305.1948 15.06397789 61189"},"version":"v1.0","launch":"5eb87d45ffd86e000604b387","longitude":-132.69757550616183,"latitude":-33.10066428222747,"height_km":557.6801114151131,"velocity_kms":7.582491371516712,"id":"5eed7716096e5900069857e9"},{"spaceTrack":{"CCSDS_OMM_VERS":"2.0","COMMENT":"GENERATED VIA SPACE-TRACK.ORG API","CREATION_DATE":"2021-07-02T17:51:43","ORIGINATOR":"18 SPCS","OBJECT_NAME":"STARLINK-1472","OBJECT_ID":"2020-038G","CENTER_NAME":"EARTH","REF_FRAME":"TEME","TIME_SYSTEM":"UTC","MEAN_ELEMENT_THEORY":"SGP4","EPOCH":"2021-07-02T11:43:07.338432","MEAN_MOTION":15.06404056,"ECCENTRICITY":0.0001782,"INCLINATION":53.0551,"RA_OF_ASC_NODE":358.5105,"ARG_OF_PERICENTER":98.0142,"MEAN_ANOMALY":262.1049,"EPHEMERIS_TYPE":0,"CLASSIFICATION_TYPE":"U","NORAD_CAT_ID":45736,"ELEMENT_SET_NO":999,"REV_AT_EPOCH":5827,"BSTAR":0.000083002,"MEAN_MOTION_DOT":0.00000955,"MEAN_MOTION_DDOT":0,"SEMIMAJOR_AXIS":6925.336,"PERIOD":95.592,"APOAPSIS":548.435,"PERIAPSIS":545.967,"OBJECT_TYPE":"PAYLOAD","RCS_SIZE":"LARGE","COUNTRY_CODE":"US","LAUNCH_DATE":"2020-06-13","SITE":"AFETR","DECAY_DATE":null,"DECAYED":0,"FILE":3068555,"GP_ID":180166921,"TLE_LINE0":"0 STARLINK-1472","TLE_LINE1":"1 45736U 20038G   21183.48827938  .00000955  00000-0  83002-4 0  9998","TLE_LINE2":"2 45736  53.0551 358.5105 0001782  98.0142 262.1049 15.06404056 58272"},"version":"v1.0","launch":"5eb87d46ffd86e000604b389","longitude":46.79659161998575,"latitude":-45.56127231426726,"height_km":563.8112525719989,"velocity_kms":7.578508258614101,"id":"5eed7716096e5900069857ea"},{"spaceTrack":{"CCSDS_OMM_VERS":"2.0","COMMENT":"GENERATED VIA SPACE-TRACK.ORG API","CREATION_DATE":"2021-07-02T17:51:43","ORIGINATOR":"18 SPCS","OBJECT_NAME":"STARLINK-1400","OBJECT_ID":"2020-035AV","CENTER_NAME":"EARTH","REF_FRAME":"TEME","TIME_SYSTEM":"UTC","MEAN_ELEMENT_THEORY":"SGP4","EPOCH":"2021-07-02T10:12:56.419200","MEAN_MOTION":15.06397895,"ECCENTRICITY":0.0001085,"INCLINATION":53.0563,"RA_OF_ASC_NODE":158.7842,"ARG_OF_PERICENTER":39.9698,"MEAN_ANOMALY":320.137,"EPHEMERIS_TYPE":0,"CLASSIFICATION_TYPE":"U","NORAD_CAT_ID":45700,"ELEMENT_SET_NO":999,"REV_AT_EPOCH":6122,"BSTAR":0.000070372,"MEAN_MOTION_DOT":0.00000767,"MEAN_MOTION_DDOT":0,"SEMIMAJOR_AXIS":6925.355,"PERIOD":95.592,"APOAPSIS":547.971,"PERIAPSIS":546.469,"OBJECT_TYPE":"PAYLOAD","RCS_SIZE":"LARGE","COUNTRY_CODE":"US","LAUNCH_DATE":"2020-06-04","SITE":"AFETR","DECAY_DATE":null,"DECAYED":0,"FILE":3068555,"GP_ID":180165916,"TLE_LINE0":"0 STARLINK-1400","TLE_LINE1":"1 45700U 20035AV  21183.42565300  .00000767  00000-0  70372-4 0  9999","TLE_LINE2":"2 45700  53.0563 158.7842 0001085  39.9698 320.1370 15.06397895 61223"},"version":"v1.0","launch":"5eb87d45ffd86e000604b387","longitude":178.05915575503693,"latitude":-52.640619960742896,"height_km":565.9095238039781,"velocity_kms":7.57780346588843,"id":"5eed7716096e5900069857eb"},{"spaceTrack":{"CCSDS_OMM_VERS":"2.0","COMMENT":"GENERATED VIA SPACE-TRACK.ORG API","CREATION_DATE":"2021-07-02T17:51:43","ORIGINATOR":"18 SPCS","OBJECT_NAME":"STARLINK-1351","OBJECT_ID":"2020-035AS","CENTER_NAME":"EARTH","REF_FRAME":"TEME","TIME_SYSTEM":"UTC","MEAN_ELEMENT_THEORY":"SGP4","EPOCH":"2021-07-02T07:38:59.561952","MEAN_MOTION":15.0638508,"ECCENTRICITY":0.0000953,"INCLINATION":53.0538,"RA_OF_ASC_NODE":159.2638,"ARG_OF_PERICENTER":37.1902,"MEAN_ANOMALY":322.9153,"EPHEMERIS_TYPE":0,"CLASSIFICATION_TYPE":"U","NORAD_CAT_ID":45697,"ELEMENT_SET_NO":999,"REV_AT_EPOCH":6121,"BSTAR":0.000050939,"MEAN_MOTION_DOT":0.00000477,"MEAN_MOTION_DDOT":0,"SEMIMAJOR_AXIS":6925.394,"PERIOD":95.593,"APOAPSIS":547.919,"PERIAPSIS":546.599,"OBJECT_TYPE":"PAYLOAD","RCS_SIZE":"LARGE","COUNTRY_CODE":"US","LAUNCH_DATE":"2020-06-04","SITE":"AFETR","DECAY_DATE":null,"DECAYED":0,"FILE":3068555,"GP_ID":180166667,"TLE_LINE0":"0 STARLINK-1351","TLE_LINE1":"1 45697U 20035AS  21183.31874493  .00000477  00000-0  50939-4 0  9993","TLE_LINE2":"2 45697  53.0538 159.2638 0000953  37.1902 322.9153 15.06385080 61211"},"version":"v1.0","launch":"5eb87d45ffd86e000604b387","longitude":47.3201904201528,"latitude":33.085681016024736,"height_km":549.569338617237,"velocity_kms":7.591397599799297,"id":"5eed7716096e5900069857ec"},{"spaceTrack":{"CCSDS_OMM_VERS":"2.0","COMMENT":"GENERATED VIA SPACE-TRACK.ORG API","CREATION_DATE":"2021-07-02T17:51:43","ORIGINATOR":"18 SPCS","OBJECT_NAME":"STARLINK-1411","OBJECT_ID":"2020-035BB","CENTER_NAME":"EARTH","REF_FRAME":"TEME","TIME_SYSTEM":"UTC","MEAN_ELEMENT_THEORY":"SGP4","EPOCH":"2021-07-02T08:16:08.024448","MEAN_MOTION":15.06394453,"ECCENTRICITY":0.000092,"INCLINATION":53.057,"RA_OF_ASC_NODE":159.151,"ARG_OF_PERICENTER":66.3099,"MEAN_ANOMALY":293.7987,"EPHEMERIS_TYPE":0,"CLASSIFICATION_TYPE":"U","NORAD_CAT_ID":45706,"ELEMENT_SET_NO":999,"REV_AT_EPOCH":6120,"BSTAR":0.000057295,"MEAN_MOTION_DOT":0.00000572,"MEAN_MOTION_DDOT":0,"SEMIMAJOR_AXIS":6925.366,"PERIOD":95.592,"APOAPSIS":547.868,"PERIAPSIS":546.593,"OBJECT_TYPE":"PAYLOAD","RCS_SIZE":"LARGE","COUNTRY_CODE":"US","LAUNCH_DATE":"2020-06-04","SITE":"AFETR","DECAY_DATE":null,"DECAYED":0,"FILE":3068555,"GP_ID":180166419,"TLE_LINE0":"0 STARLINK-1411","TLE_LINE1":"1 45706U 20035BB  21183.34453732  .00000572  00000-0  57295-4 0  9994","TLE_LINE2":"2 45706  53.0570 159.1510 0000920  66.3099 293.7987 15.06394453 61204"},"version":"v1.0","launch":"5eb87d45ffd86e000604b387","longitude":-105.27804036906353,"latitude":-2.3557421620613868,"height_km":548.2302600397288,"velocity_kms":7.589012512926043,"id":"5eed7716096e5900069857ed"},{"spaceTrack":{"CCSDS_OMM_VERS":"2.0","COMMENT":"GENERATED VIA SPACE-TRACK.ORG API","CREATION_DATE":"2021-07-02T17:51:43","ORIGINATOR":"18 SPCS","OBJECT_NAME":"STARLINK-1417","OBJECT_ID":"2020-035AN","CENTER_NAME":"EARTH","REF_FRAME":"TEME","TIME_SYSTEM":"UTC","MEAN_ELEMENT_THEORY":"SGP4","EPOCH":"2021-07-02T11:08:38.318496","MEAN_MOTION":15.06401292,"ECCENTRICITY":0.0000649,"INCLINATION":53.0554,"RA_OF_ASC_NODE":178.6171,"ARG_OF_PERICENTER":36.2246,"MEAN_ANOMALY":323.8787,"EPHEMERIS_TYPE":0,"CLASSIFICATION_TYPE":"U","NORAD_CAT_ID":45693,"ELEMENT_SET_NO":999,"REV_AT_EPOCH":6094,"BSTAR":0.00017202,"MEAN_MOTION_DOT":0.00002282,"MEAN_MOTION_DDOT":0,"SEMIMAJOR_AXIS":6925.345,"PERIOD":95.592,"APOAPSIS":547.659,"PERIAPSIS":546.76,"OBJECT_TYPE":"PAYLOAD","RCS_SIZE":"LARGE","COUNTRY_CODE":"US","LAUNCH_DATE":"2020-06-04","SITE":"AFETR","DECAY_DATE":null,"DECAYED":0,"FILE":3068555,"GP_ID":180166167,"TLE_LINE0":"0 STARLINK-1417","TLE_LINE1":"1 45693U 20035AN  21183.46433239  .00002282  00000-0  17202-3 0  9995","TLE_LINE2":"2 45693  53.0554 178.6171 0000649  36.2246 323.8787 15.06401292 60941"},"version":"v1.0","launch":"5eb87d45ffd86e000604b387","longitude":-28.601201144114082,"latitude":47.57001653814735,"height_km":552.0853770752065,"velocity_kms":7.59181093656089,"id":"5eed7716096e5900069857ee"},{"spaceTrack":{"CCSDS_OMM_VERS":"2.0","COMMENT":"GENERATED VIA SPACE-TRACK.ORG API","CREATION_DATE":"2021-07-02T17:51:43","ORIGINATOR":"18 SPCS","OBJECT_NAME":"STARLINK-1499","OBJECT_ID":"2020-038AJ","CENTER_NAME":"EARTH","REF_FRAME":"TEME","TIME_SYSTEM":"UTC","MEAN_ELEMENT_THEORY":"SGP4","EPOCH":"2021-07-02T11:24:34.496928","MEAN_MOTION":15.06377752,"ECCENTRICITY":0.0001361,"INCLINATION":53.0575,"RA_OF_ASC_NODE":338.5613,"ARG_OF_PERICENTER":114.2051,"MEAN_ANOMALY":245.9081,"EPHEMERIS_TYPE":0,"CLASSIFICATION_TYPE":"U","NORAD_CAT_ID":45762,"ELEMENT_SET_NO":999,"REV_AT_EPOCH":5856,"BSTAR":-0.0000087361,"MEAN_MOTION_DOT":-0.00000411,"MEAN_MOTION_DDOT":0,"SEMIMAJOR_AXIS":6925.417,"PERIOD":95.594,"APOAPSIS":548.224,"PERIAPSIS":546.339,"OBJECT_TYPE":"PAYLOAD","RCS_SIZE":"LARGE","COUNTRY_CODE":"US","LAUNCH_DATE":"2020-06-13","SITE":"AFETR","DECAY_DATE":null,"DECAYED":0,"FILE":3068555,"GP_ID":180166924,"TLE_LINE0":"0 STARLINK-1499","TLE_LINE1":"1 45762U 20038AJ  21183.47539927 -.00000411  00000-0 -87361-5 0  9996","TLE_LINE2":"2 45762  53.0575 338.5613 0001361 114.2051 245.9081 15.06377752 58561"},"version":"v1.0","launch":"5eb87d46ffd86e000604b389","longitude":80.59591734478198,"latitude":5.461842000352253,"height_km":547.9182753615487,"velocity_kms":7.589480163790775,"id":"5eed7716096e5900069857ef"}]